IRIDIUM 126             
1 42809U 17039G   25194.56202311  .00000209  00000+0  67611-4 0  9999
2 42809  86.4000 135.2113 0002449  81.0079 279.1394 14.34216888421415
IRIDIUM 124             
1 42810U 17039H   25194.37124445  .00000266  00000+0  73208-4 0  9993
2 42810  86.4458  72.0192 0001826  86.7419 273.3991 14.43275848426243
IRIDIUM 128             
1 42811U 17039J   25194.41322542 -.00000018  00000+0 -13337-4 0  9991
2 42811  86.4011 166.7468 0001802  86.1406 273.9996 14.34217330421428
IRIDIUM 121             
1 42812U 17039K   25194.58105280  .00000056  00000+0  12904-4 0  9997
2 42812  86.4000 135.2286 0002201  86.7538 273.3909 14.34217850421292
IRIDIUM 133             
1 42955U 17061A   25194.44493930  .00000007  00000+0 -44235-5 0  9997
2 42955  86.4011 166.8426 0002157  84.6651 275.4791 14.34217333406225
IRIDIUM 100             
1 42956U 17061B   25194.43859384  .00000024  00000+0  13386-5 0  9997
2 42956  86.4005 166.7717 0002187  81.7023 278.4421 14.34217029406220
IRIDIUM 122             
1 42957U 17061C   25194.40688324 -.00000007  00000+0 -95270-5 0  9994
2 42957  86.4009 166.7845 0002159  83.7908 276.3534 14.34217327406223
IRIDIUM 129             
1 42958U 17061D   25194.43225471  .00000007  00000+0 -45682-5 0  9999
2 42958  86.4010 166.8370 0002586  89.2160 270.9332 14.34217535406244
